[{"OBJECT_NAME":"STARLINK-33708","OBJECT_ID":"2025-065G","EPOCH":"2026-03-09T10:40:42.943872","MEAN_MOTION":15.27608857,"ECCENTRICITY":0.00019877,"INCLINATION":42.9991,"RA_OF_ASC_NODE":108.3593,"ARG_OF_PERICENTER":266.6574,"MEAN_ANOMALY":93.405,"EPHEMERIS_TYPE":0,"CLASSIFICATION_TYPE":"U","NORAD_CAT_ID":63405,"ELEMENT_SET_NO":999,"REV_AT_EPOCH":5280,"BSTAR":0.0011247805,"MEAN_MOTION_DOT":0.00030847,"MEAN_MOTION_DDOT":0},{"OBJECT_NAME":"FENGYUN 1C DEB","OBJECT_ID":"1999-025ETT","EPOCH":"2026-03-07T08:30:03.670560","MEAN_MOTION":15.28888299,"ECCENTRICITY":0.00158464,"INCLINATION":99.1103,"RA_OF_ASC_NODE":112.0072,"ARG_OF_PERICENTER":201.0032,"MEAN_ANOMALY":159.0553,"EPHEMERIS_TYPE":0,"CLASSIFICATION_TYPE":"U","NORAD_CAT_ID":38726,"ELEMENT_SET_NO":999,"REV_AT_EPOCH":71135,"BSTAR":0.013792546,"MEAN_MOTION_DOT":0.00409659,"MEAN_MOTION_DDOT":0}]
